{"type": "FeatureCollection", "features": [ {"type": "Feature", "properties": {"norad_id": 67020, "name": "STARLINK-36172", "group": "last-30-days", "lat": -28.235314894780323, "lon": -85.71392218194357, "alt_km": 349.37481722179655, "timestamp": "2025-12-25T22:42:15.711487+00:00", "meta": {"OBJECT_NAME": "STARLINK-36172", "OBJECT_ID": "2025-293T", "EPOCH": "2025-12-25T18:00:02.000160", "MEAN_MOTION": 15.75540888, "ECCENTRICITY": 0.0003837, "INCLINATION": 69.9933, "RA_OF_ASC_NODE": 286.1247, "ARG_OF_PERICENTER": 263.2629, "MEAN_ANOMALY": 35.5042, "EPHEMERIS_TYPE": 0, "CLASSIFICATION_TYPE": "U", "NORAD_CAT_ID": 67020, "ELEMENT_SET_NO": 999, "REV_AT_EPOCH": 231, "BSTAR": -0.011932, "MEAN_MOTION_DOT": -0.0159132, "MEAN_MOTION_DDOT": 0}, "tle": {"line1": "1 67020U 25293T   25359.75002315 -.01591320  00000+0 -11932-1 0  9992", "line2": "2 67020  69.9933 286.1247 0003837 263.2629  35.5042 15.75540888  2313"}}, "geometry": {"type": "Point", "coordinates": [-85.71392218194357, -28.235314894780323]}}, {"type": "Feature", "properties": {"norad_id": 67021, "name": "STARLINK-36184", "group": "last-30-days", "lat": -26.00707921600297, "lon": -84.67413213679782, "alt_km": 349.46364174374776, "timestamp": "2025-12-25T22:42:15.711496+00:00", "meta": {"OBJECT_NAME": "STARLINK-36184", "OBJECT_ID": "2025-293U", "EPOCH": "2025-12-25T18:00:02.000160", "MEAN_MOTION": 15.75513986, "ECCENTRICITY": 0.0003747, "INCLINATION": 69.9936, "RA_OF_ASC_NODE": 286.1208, "ARG_OF_PERICENTER": 261.9691, "MEAN_ANOMALY": 39.2323, "EPHEMERIS_TYPE": 0, "CLASSIFICATION_TYPE": "U", "NORAD_CAT_ID": 67021, "ELEMENT_SET_NO": 999, "REV_AT_EPOCH": 231, "BSTAR": -0.011903, "MEAN_MOTION_DOT": -0.01586191, "MEAN_MOTION_DDOT": 0}, "tle": {"line1": "1 67021U 25293U   25359.75002315 -.01586191  00000+0 -11903-1 0  9991", "line2": "2 67021  69.9936 286.1208 0003747 261.9691  39.2323 15.75513986  2310"}}, "geometry": {"type": "Point", "coordinates": [-84.67413213679782, -26.00707921600297]}}, {"type": "Feature", "properties": {"norad_id": 67022, "name": "STARLINK-36209", "group": "last-30-days", "lat": -23.52317965749552, "lon": -83.56289387584076, "alt_km": 349.4310397211302, "timestamp": "2025-12-25T22:42:15.711506+00:00", "meta": {"OBJECT_NAME": "STARLINK-36209", "OBJECT_ID": "2025-293V", "EPOCH": "2025-12-25T18:00:02.000160", "MEAN_MOTION": 15.75479787, "ECCENTRICITY": 0.0003766, "INCLINATION": 69.9932, "RA_OF_ASC_NODE": 286.1184, "ARG_OF_PERICENTER": 263.1322, "MEAN_ANOMALY": 40.7768, "EPHEMERIS_TYPE": 0, "CLASSIFICATION_TYPE": "U", "NORAD_CAT_ID": 67022, "ELEMENT_SET_NO": 999, "REV_AT_EPOCH": 231, "BSTAR": -0.011926, "MEAN_MOTION_DOT": -0.01586803, "MEAN_MOTION_DDOT": 0}, "tle": {"line1": "1 67022U 25293V   25359.75002315 -.01586803  00000+0 -11926-1 0  9997", "line2": "2 67022  69.9932 286.1184 0003766 263.1322  40.7768 15.75479787  2316"}}, "geometry": {"type": "Point", "coordinates": [-83.56289387584076, -23.52317965749552]}}, {"type": "Feature", "properties": {"norad_id": 67023, "name": "STARLINK-36191", "group": "last-30-days", "lat": -21.344938543759245, "lon": -82.62597500577628, "alt_km": 349.4207750888754, "timestamp": "2025-12-25T22:42:15.711518+00:00", "meta": {"OBJECT_NAME": "STARLINK-36191", "OBJECT_ID": "2025-293W", "EPOCH": "2025-12-25T18:00:02.000160", "MEAN_MOTION": 15.75464957, "ECCENTRICITY": 0.0003736, "INCLINATION": 69.9935, "RA_OF_ASC_NODE": 286.1153, "ARG_OF_PERICENTER": 262.8099, "MEAN_ANOMALY": 43.4569, "EPHEMERIS_TYPE": 0, "CLASSIFICATION_TYPE": "U", "NORAD_CAT_ID": 67023, "ELEMENT_SET_NO": 999, "REV_AT_EPOCH": 220, "BSTAR": -0.011972, "MEAN_MOTION_DOT": -0.01591146, "MEAN_MOTION_DDOT": 0}, "tle": {"line1": "1 67023U 25293W   25359.75002315 -.01591146  00000+0 -11972-1 0  9995", "line2": "2 67023  69.9935 286.1153 0003736 262.8099  43.4569 15.75464957  2200"}}, "geometry": {"type": "Point", "coordinates": [-82.62597500577628, -21.344938543759245]}}, {"type": "Feature", "properties": {"norad_id": 67024, "name": "STARLINK-36192", "group": "last-30-days", "lat": -18.974883567092974, "lon": -81.64022378899455, "alt_km": 349.43006897893247, "timestamp": "2025-12-25T22:42:15.711528+00:00", "meta": {"OBJECT_NAME": "STARLINK-36192", "OBJECT_ID": "2025-293X", "EPOCH": "2025-12-25T14:00:04.000032", "MEAN_MOTION": 15.76016806, "ECCENTRICITY": 0.00036412, "INCLINATION": 69.993, "RA_OF_ASC_NODE": 286.5846, "ARG_OF_PERICENTER": 266.7225, "MEAN_ANOMALY": 177.1063, "EPHEMERIS_TYPE": 0, "CLASSIFICATION_TYPE": "U", "NORAD_CAT_ID": 67024, "ELEMENT_SET_NO": 999, "REV_AT_EPOCH": 228, "BSTAR": -0.011655679, "MEAN_MOTION_DOT": -0.01587772, "MEAN_MOTION_DDOT": 0}, "tle": {"line1": "1 67024U 25293X   25359.58337963 -.01587772  00000+0 -11656-1 0  9996", "line2": "2 67024  69.9930 286.5846 0003641 266.7225 177.1063 15.76016806  2287"}}, "geometry": {"type": "Point", "coordinates": [-81.64022378899455, -18.974883567092974]}}, {"type": "Feature", "properties": {"norad_id": 67025, "name": "STARLINK-36178", "group": "last-30-days", "lat": -16.900871819008604, "lon": -80.8013015394185, "alt_km": 349.3696576011316, "timestamp": "2025-12-25T22:42:15.711540+00:00", "meta": {"OBJECT_NAME": "STARLINK-36178", "OBJECT_ID": "2025-293Y", "EPOCH": "2025-12-25T18:00:02.000160", "MEAN_MOTION": 15.75420369, "ECCENTRICITY": 0.0003727, "INCLINATION": 69.9937, "RA_OF_ASC_NODE": 286.1099, "ARG_OF_PERICENTER": 262.4263, "MEAN_ANOMALY": 48.6418, "EPHEMERIS_TYPE": 0, "CLASSIFICATION_TYPE": "U", "NORAD_CAT_ID": 67025, "ELEMENT_SET_NO": 999, "REV_AT_EPOCH": 231, "BSTAR": -0.011971, "MEAN_MOTION_DOT": -0.01588355, "MEAN_MOTION_DDOT": 0}, "tle": {"line1": "1 67025U 25293Y   25359.75002315 -.01588355  00000+0 -11971-1 0  9994", "line2": "2 67025  69.9937 286.1099 0003727 262.4263  48.6418 15.75420369  2313"}}, "geometry": {"type": "Point", "coordinates": [-80.8013015394185, -16.900871819008604]}}, {"type": "Feature", "properties": {"norad_id": 67026, "name": "STARLINK-36176", "group": "last-30-days", "lat": -12.476933833898595, "lon": -79.07556192239718, "alt_km": 349.0827230093382, "timestamp": "2025-12-25T22:42:15.711550+00:00", "meta": {"OBJECT_NAME": "STARLINK-36176", "OBJECT_ID": "2025-293Z", "EPOCH": "2025-12-25T18:00:02.000160", "MEAN_MOTION": 15.75380004, "ECCENTRICITY": 0.0003605, "INCLINATION": 69.9933, "RA_OF_ASC_NODE": 286.104, "ARG_OF_PERICENTER": 266.5132, "MEAN_ANOMALY": 49.3167, "EPHEMERIS_TYPE": 0, "CLASSIFICATION_TYPE": "U", "NORAD_CAT_ID": 67026, "ELEMENT_SET_NO": 999, "REV_AT_EPOCH": 231, "BSTAR": -0.011991, "MEAN_MOTION_DOT": -0.0158805, "MEAN_MOTION_DDOT": 0}, "tle": {"line1": "1 67026U 25293Z   25359.75002315 -.01588050  00000+0 -11991-1 0  9999", "line2": "2 67026  69.9933 286.1040 0003605 266.5132  49.3167 15.75380004  2311"}}, "geometry": {"type": "Point", "coordinates": [-79.07556192239718, -12.476933833898595]}}, {"type": "Feature", "properties": {"norad_id": 67027, "name": "STARLINK-36171", "group": "last-30-days", "lat": -14.472210491766928, "lon": -79.84486876635167, "alt_km": 349.3272686380333, "timestamp": "2025-12-25T22:42:15.711561+00:00", "meta": {"OBJECT_NAME": "STARLINK-36171", "OBJECT_ID": "2025-293AA", "EPOCH": "2025-12-25T18:00:02.000160", "MEAN_MOTION": 15.75389979, "ECCENTRICITY": 0.0003666, "INCLINATION": 69.993, "RA_OF_ASC_NODE": 286.1066, "ARG_OF_PERICENTER": 262.6947, "MEAN_ANOMALY": 50.9949, "EPHEMERIS_TYPE": 0, "CLASSIFICATION_TYPE": "U", "NORAD_CAT_ID": 67027, "ELEMENT_SET_NO": 999, "REV_AT_EPOCH": 231, "BSTAR": -0.011992, "MEAN_MOTION_DOT": -0.01588786, "MEAN_MOTION_DDOT": 0}, "tle": {"line1": "1 67027U 25293AA  25359.75002315 -.01588786  00000+0 -11992-1 0  9997", "line2": "2 67027  69.9930 286.1066 0003666 262.6947  50.9949 15.75389979  2311"}}, "geometry": {"type": "Point", "coordinates": [-79.84486876635167, -14.472210491766928]}}, {"type": "Feature", "properties": {"norad_id": 67028, "name": "STARLINK-36132", "group": "last-30-days", "lat": -8.010625545786269, "lon": -77.3963350752554, "alt_km": 348.8489608087939, "timestamp": "2025-12-25T22:42:15.711571+00:00", "meta": {"OBJECT_NAME": "STARLINK-36132", "OBJECT_ID": "2025-293AB", "EPOCH": "2025-12-25T18:00:02.000160", "MEAN_MOTION": 15.75335021, "ECCENTRICITY": 0.0003823, "INCLINATION": 69.9938, "RA_OF_ASC_NODE": 286.0979, "ARG_OF_PERICENTER": 267.761, "MEAN_ANOMALY": 52.8624, "EPHEMERIS_TYPE": 0, "CLASSIFICATION_TYPE": "U", "NORAD_CAT_ID": 67028, "ELEMENT_SET_NO": 999, "REV_AT_EPOCH": 231, "BSTAR": -0.011993, "MEAN_MOTION_DOT": -0.01585788, "MEAN_MOTION_DDOT": 0}, "tle": {"line1": "1 67028U 25293AB  25359.75002315 -.01585788  00000+0 -11993-1 0  9998", "line2": "2 67028  69.9938 286.0979 0003823 267.7610  52.8624 15.75335021  2310"}}, "geometry": {"type": "Point", "coordinates": [-77.3963350752554, -8.010625545786269]}}, {"type": "Feature", "properties": {"norad_id": 67029, "name": "STARLINK-36190", "group": "last-30-days", "lat": -10.403821318938341, "lon": -78.28991663532813, "alt_km": 349.0190204520859, "timestamp": "2025-12-25T22:42:15.711581+00:00", "meta": {"OBJECT_NAME": "STARLINK-36190", "OBJECT_ID": "2025-293AC", "EPOCH": "2025-12-25T18:00:02.000160", "MEAN_MOTION": 15.75366509, "ECCENTRICITY": 0.000371, "INCLINATION": 69.9936, "RA_OF_ASC_NODE": 286.101, "ARG_OF_PERICENTER": 265.7218, "MEAN_ANOMALY": 52.3293, "EPHEMERIS_TYPE": 0, "CLASSIFICATION_TYPE": "U", "NORAD_CAT_ID": 67029, "ELEMENT_SET_NO": 999, "REV_AT_EPOCH": 231, "BSTAR": -0.012004, "MEAN_MOTION_DOT": -0.01588842, "MEAN_MOTION_DDOT": 0}, "tle": {"line1": "1 67029U 25293AC  25359.75002315 -.01588842  00000+0 -12004-1 0  9997", "line2": "2 67029  69.9936 286.1010 0003710 265.7218  52.3293 15.75366509  2315"}}, "geometry": {"type": "Point", "coordinates": [-78.28991663532813, -10.403821318938341]}}]}